     2.100          NAVIGATION                              RINEX VERSION / TYPE
fic2rin                                 04/05/2013 00:13:53 PGM / RUN BY / DATE
                                                            END OF HEADER
 4 13  4  4 11 59 44.0  .180744566023D-03  .109139364213D-10  .000000000000D+00
     .300000000000D+01  .915625000000D+01  .511342728049D-08  .275768135590D+01
     .378116965294D-06  .103087663883D-01  .101141631603D-04  .515377285004D+04
     .388784000000D+06  .558793544769D-08 -.467306680742D+00 -.987201929092D-07
     .937996492668D+00  .172250000000D+03  .968338269439D+00 -.807712215884D-08
     .359657838335D-09  .100000000000D+01  .173400000000D+04  .000000000000D+00
     .240000000000D+01  .000000000000D+00 -.605359673500D-08  .300000000000D+01
     .381606000000D+06  .400000000000D+01
30 13  4  4 11 59 44.0 -.969972461462D-06  .241016095970D-10  .000000000000D+00
     .180000000000D+02  .112187500000D+02  .469198115413D-08  .901220136556D+00
     .426545739174D-06  .109082980780D-01  .420585274696D-05  .515363941193D+04
     .388784000000D+06 -.819563865662D-07 -.265929523185D+01 -.875443220139D-07
     .963507877788D+00  .302781250000D+03  .161281145984D+01 -.854964184119D-08
     .118933525487D-09  .100000000000D+01  .173400000000D+04  .000000000000D+00
     .485000000000D+01  .630000000000D+02 -.419095158577D-08  .180000000000D+02
     .381606000000D+06  .400000000000D+01
 1 13  4  4 12  0  0.0  .131702981889D-04  .341060513165D-11  .000000000000D+00
     .260000000000D+02  .113125000000D+02  .462519265784D-08 -.127456826309D+01
     .510364770889D-06  .170239666477D-02  .102985650301D-04  .515370193481D+04
     .388800000000D+06  .000000000000D+00 -.463331657292D+00 -.353902578354D-07
     .960448837086D+00  .180843750000D+03  .313732681665D+00 -.801676250177D-08
     .321799118511D-09  .100000000000D+01  .173400000000D+04  .000000000000D+00
     .240000000000D+01  .000000000000D+00  .838190317154D-08  .260000000000D+02
     .381606000000D+06  .400000000000D+01
 2 13  4  4 12  0  0.0  .425612088293D-03  .193267624127D-11  .000000000000D+00
     .101000000000D+03  .850000000000D+01  .527164815673D-08 -.469809831591D+00
     .614672899246D-06  .122404685244D-01  .998564064503D-05  .515363287735D+04
     .388800000000D+06  .141561031342D-06 -.483808305975D+00  .199303030968D-06
     .938951109620D+00  .176093750000D+03 -.263010069007D+01 -.844928051788D-08
     .370015412627D-09  .100000000000D+01  .173400000000D+04  .000000000000D+00
     .340000000000D+01  .000000000000D+00 -.176951289177D-07  .101000000000D+03
     .381606000000D+06  .400000000000D+01
 3 13  4  4 12  0  0.0  .189685262740D-03  .500222085975D-11  .000000000000D+00
     .114000000000D+03 -.724375000000D+02  .524950437721D-08 -.298270209569D+00
    -.379420816898D-05  .160672552884D-01  .719539821148D-05  .515368814850D+04
     .388800000000D+06 -.150874257088D-06 -.165298163814D+01  .169500708580D-06
     .933670169922D+00  .230843750000D+03  .127804087512D+01 -.879965225512D-08
     .103575742917D-10  .100000000000D+01  .173400000000D+04  .000000000000D+00
     .340000000000D+01  .000000000000D+00 -.465661287308D-08  .114000000000D+03
     .381606000000D+06  .400000000000D+01
 5 13  4  4 12  0  0.0 -.390430912375D-03 -.136424205266D-11  .000000000000D+00
     .230000000000D+02  .171875000000D+02  .529307762079D-08  .165914752478D+01
     .108778476715D-05  .305120111443D-02  .643916428089D-05  .515358138084D+04
     .388800000000D+06  .558793544769D-08  .580736796007D+00  .102445483208D-06
     .949257690793D+00  .250250000000D+03  .304081780375D+00 -.843499420851D-08
    -.760745973838D-10  .100000000000D+01  .173400000000D+04  .000000000000D+00
     .240000000000D+01  .000000000000D+00 -.102445483208D-07  .230000000000D+02
     .381606000000D+06  .400000000000D+01
 6 13  4  4 12  0  0.0  .287559814751D-03 -.153477230924D-10  .000000000000D+00
     .280000000000D+02 -.837187500000D+02  .501556606132D-08  .156823982625D+01
    -.438466668129D-05  .793448428158D-02  .710785388947D-05  .515368511772D+04
     .388800000000D+06  .596046447754D-07 -.157388482335D+01  .931322574615D-07
     .940329014604D+00  .232375000000D+03 -.357869231719D+00 -.833641867387D-08
    -.125719522437D-09  .100000000000D+01  .173400000000D+04  .000000000000D+00
     .240000000000D+01  .000000000000D+00 -.512227416039D-08  .280000000000D+02
     .381606000000D+06  .400000000000D+01
 7 13  4  4 12  0  0.0  .198880676180D-03  .432009983342D-11  .000000000000D+00
     .710000000000D+02  .644375000000D+02  .400623830448D-08 -.185517264014D+01
     .328011810780D-05  .617044721730D-02  .787526369095D-05  .515369960403D+04
     .388800000000D+06 -.856816768646D-07  .269732706426D+01 -.298023223877D-07
     .975697532964D+00  .237437500000D+03 -.293480736614D+01 -.782175437889D-08
     .138220043134D-09  .100000000000D+01  .173400000000D+04  .000000000000D+00
     .240000000000D+01  .000000000000D+00 -.107102096081D-07  .710000000000D+02
     .381606000000D+06  .400000000000D+01
 8 13  4  4 12  0  0.0  .545382499695D-05  .113686837722D-12  .000000000000D+00
     .270000000000D+02  .660312500000D+02  .353157567573D-08 -.240168941088D+01
     .329129397869D-05  .127872488229D-01  .783801078796D-05  .515359065819D+04
     .388800000000D+06 -.353902578354D-07  .278738150705D+01 -.100582838058D-06
     .998393889193D+00  .249250000000D+03 -.287743484240D+01 -.757995859284D-08
     .233581158164D-09  .100000000000D+01  .173400000000D+04  .000000000000D+00
     .240000000000D+01  .000000000000D+00 -.419095158577D-08  .270000000000D+02
     .381606000000D+06  .400000000000D+01
 9 13  4  4 12  0  0.0  .231657177210D-03  .261479726760D-11  .000000000000D+00
     .380000000000D+02  .798437500000D+02  .388087593977D-08 -.150369373595D+01
     .433810055256D-05  .172685460420D-01  .809319317341D-05  .515280674934D+04
     .388800000000D+06 -.540167093277D-07  .267375944669D+01  .413507223129D-06
     .984331267314D+00  .238656250000D+03  .164413325568D+01 -.796890336538D-08
     .771460705864D-10  .100000000000D+01  .173400000000D+04  .000000000000D+00
     .240000000000D+01  .000000000000D+00 -.558793544769D-08  .380000000000D+02
     .381606000000D+06  .400000000000D+01
10 13  4  4 12  0  0.0 -.755833461881D-04 -.125055521494D-11  .000000000000D+00
     .800000000000D+01  .147187500000D+02  .536986653364D-08  .193341576177D+01
     .629574060440D-06  .123514276929D-01  .660121440887D-05  .515361557198D+04
     .388800000000D+06 -.324100255966D-06  .600468633597D+00 -.122934579849D-06
     .944080461746D+00  .245968750000D+03  .799222067767D+00 -.842642242289D-08
    -.628597612185D-10  .100000000000D+01  .173400000000D+04  .000000000000D+00
     .340000000000D+01  .000000000000D+00 -.232830643654D-08  .264000000000D+03
     .381606000000D+06  .400000000000D+01
11 13  4  4 12  0  0.0 -.369046349078D-03 -.363797880709D-11  .000000000000D+00
     .550000000000D+02 -.128750000000D+02  .613204113841D-08 -.165310073138D+01
    -.581145286560D-06  .138662711252D-01  .969879329205D-05  .515368800735D+04
     .388800000000D+06  .298023223877D-06 -.756282613338D+00  .875443220139D-07
     .888843205922D+00  .148843750000D+03  .115480356186D+01 -.866107505426D-08
     .261082303697D-09  .100000000000D+01  .173400000000D+04  .000000000000D+00
     .240000000000D+01  .000000000000D+00 -.116415321827D-07  .550000000000D+02
     .381606000000D+06  .400000000000D+01
12 13  4  4 12  0  0.0  .126540195197D-03  .204636307899D-11  .000000000000D+00
     .390000000000D+02 -.194062500000D+02  .416195907659D-08 -.214165459585D+01
    -.962987542152D-06  .444882852025D-02  .408478081226D-05  .515359384727D+04
     .388800000000D+06 -.745058059692D-07 -.252794685269D+01  .186264514923D-07
     .983584601241D+00  .313750000000D+03  .196468407332D+00 -.811640950961D-08
     .155363614375D-09  .100000000000D+01  .173400000000D+04  .000000000000D+00
     .240000000000D+01  .000000000000D+00 -.121071934700D-07  .390000000000D+02
     .381606000000D+06  .400000000000D+01
13 13  4  4 12  0  0.0  .131748616695D-03 -.363797880709D-11  .000000000000D+00
     .700000000000D+02  .753125000000D+01  .396623663825D-08  .610103823147D+00
     .176951289177D-06  .512980332132D-02  .932067632675D-05  .515377585411D+04
     .388800000000D+06  .745058059692D-08  .172966449766D+01 -.633299350739D-07
     .981868687572D+00  .212812500000D+03  .207383528048D+01 -.784068373881D-08
    -.444304221340D-09  .100000000000D+01  .173400000000D+04  .000000000000D+00
     .240000000000D+01  .000000000000D+00 -.111758708954D-07  .700000000000D+02
     .381606000000D+06  .400000000000D+01
14 13  4  4 12  0  0.0  .221081543714D-03  .000000000000D+00  .000000000000D+00
     .450000000000D+02  .190625000000D+01  .420731810883D-08  .731950682512D+00
     .203028321266D-06  .674211233854D-02  .969693064690D-05  .515372999191D+04
     .388800000000D+06 -.126659870148D-06  .170077581109D+01 -.186264514923D-08
     .974566894783D+00  .202468750000D+03 -.202747556162D+01 -.802426281418D-08
    -.520021660989D-09  .100000000000D+01  .173400000000D+04  .000000000000D+00
     .240000000000D+01  .000000000000D+00 -.884756445885D-08  .450000000000D+02
     .381606000000D+06  .400000000000D+01
15 13  4  4 12  0  0.0 -.114001799375D-03 -.136424205266D-11  .000000000000D+00
     .580000000000D+02  .337500000000D+01  .504485299552D-08  .219176291355D+00
     .931322574615D-07  .538470910396D-02  .881217420101D-05  .515373552704D+04
     .388800000000D+06  .800937414169D-07  .160259318479D+01 -.558793544769D-08
     .941230562740D+00  .195187500000D+03  .162617637220D+00 -.838570644119D-08
    -.534307970357D-09  .100000000000D+01  .173400000000D+04  .000000000000D+00
     .240000000000D+01  .000000000000D+00 -.102445483208D-07  .580000000000D+02
     .381606000000D+06  .400000000000D+01
